CCSDS_OMM_VERS = 2.0
CREATION_DATE  = 
ORIGINATOR     = 

OBJECT_NAME    = TRANSPORTER-15CL
OBJECT_ID      = 2025-276CL
CENTER_NAME    = EARTH
REF_FRAME      = TEME
TIME_SYSTEM    = UTC
MEAN_ELEMENT_THEORY = SGP/SGP4

EPOCH          = 2025-12-24T04:49:25.409856
MEAN_MOTION    = 15.18130934
ECCENTRICITY   = .00016772
INCLINATION    = 97.4414
RA_OF_ASC_NODE = 69.7899
ARG_OF_PERICENTER = 100.4220
MEAN_ANOMALY   = 259.7203

EPHEMERIS_TYPE = 0
CLASSIFICATION_TYPE = U
NORAD_CAT_ID   = 66748
ELEMENT_SET_NO = 999
REV_AT_EPOCH   = 386
BSTAR          = .11661203E-2
MEAN_MOTION_DOT = .23791E-3
MEAN_MOTION_DDOT = 0

CCSDS_OMM_VERS = 2.0
CREATION_DATE  = 
ORIGINATOR     = 

OBJECT_NAME    = TRANSPORTER-15CM
OBJECT_ID      = 2025-276CM
CENTER_NAME    = EARTH
REF_FRAME      = TEME
TIME_SYSTEM    = UTC
MEAN_ELEMENT_THEORY = SGP/SGP4

EPOCH          = 2025-12-24T04:56:14.217504
MEAN_MOTION    = 15.17895008
ECCENTRICITY   = .00019686
INCLINATION    = 97.4399
RA_OF_ASC_NODE = 69.7806
ARG_OF_PERICENTER = 182.3590
MEAN_ANOMALY   = 177.7635

EPHEMERIS_TYPE = 0
CLASSIFICATION_TYPE = U
NORAD_CAT_ID   = 66749
ELEMENT_SET_NO = 999
REV_AT_EPOCH   = 386
BSTAR          = .57574608E-3
MEAN_MOTION_DOT = .11614E-3
MEAN_MOTION_DDOT = 0

CCSDS_OMM_VERS = 2.0
CREATION_DATE  = 
ORIGINATOR     = 

OBJECT_NAME    = TRANSPORTER-15CN
OBJECT_ID      = 2025-276CN
CENTER_NAME    = EARTH
REF_FRAME      = TEME
TIME_SYSTEM    = UTC
MEAN_ELEMENT_THEORY = SGP/SGP4

EPOCH          = 2025-12-24T06:26:29.652000
MEAN_MOTION    = 15.18051603
ECCENTRICITY   = .00022379
INCLINATION    = 97.4438
RA_OF_ASC_NODE = 69.8649
ARG_OF_PERICENTER = 148.4569
MEAN_ANOMALY   = 211.6800

EPHEMERIS_TYPE = 0
CLASSIFICATION_TYPE = U
NORAD_CAT_ID   = 66750
ELEMENT_SET_NO = 999
REV_AT_EPOCH   = 387
BSTAR          = .55816894E-3
MEAN_MOTION_DOT = .11308E-3
MEAN_MOTION_DDOT = 0

CCSDS_OMM_VERS = 2.0
CREATION_DATE  = 
ORIGINATOR     = 

OBJECT_NAME    = ICEYE-X58
OBJECT_ID      = 2025-276CP
CENTER_NAME    = EARTH
REF_FRAME      = TEME
TIME_SYSTEM    = UTC
MEAN_ELEMENT_THEORY = SGP/SGP4

EPOCH          = 2025-12-24T04:56:49.119648
MEAN_MOTION    = 15.17821038
ECCENTRICITY   = .000245
INCLINATION    = 97.4410
RA_OF_ASC_NODE = 69.7883
ARG_OF_PERICENTER = 199.7456
MEAN_ANOMALY   = 160.3684

EPHEMERIS_TYPE = 0
CLASSIFICATION_TYPE = U
NORAD_CAT_ID   = 66751
ELEMENT_SET_NO = 999
REV_AT_EPOCH   = 386
BSTAR          = .49752668E-3
MEAN_MOTION_DOT = .10004E-3
MEAN_MOTION_DDOT = 0

CCSDS_OMM_VERS = 2.0
CREATION_DATE  = 
ORIGINATOR     = 

OBJECT_NAME    = ICEYE-X59
OBJECT_ID      = 2025-276CQ
CENTER_NAME    = EARTH
REF_FRAME      = TEME
TIME_SYSTEM    = UTC
MEAN_ELEMENT_THEORY = SGP/SGP4

EPOCH          = 2025-12-24T05:01:27.015744
MEAN_MOTION    = 15.17621478
ECCENTRICITY   = .00019168
INCLINATION    = 97.4404
RA_OF_ASC_NODE = 69.7838
ARG_OF_PERICENTER = 229.2772
MEAN_ANOMALY   = 130.8295

EPHEMERIS_TYPE = 0
CLASSIFICATION_TYPE = U
NORAD_CAT_ID   = 66752
ELEMENT_SET_NO = 999
REV_AT_EPOCH   = 386
BSTAR          = .53127703E-3
MEAN_MOTION_DOT = .10627E-3
MEAN_MOTION_DDOT = 0

CCSDS_OMM_VERS = 2.0
CREATION_DATE  = 
ORIGINATOR     = 

OBJECT_NAME    = ICEYE-X60
OBJECT_ID      = 2025-276CR
CENTER_NAME    = EARTH
REF_FRAME      = TEME
TIME_SYSTEM    = UTC
MEAN_ELEMENT_THEORY = SGP/SGP4

EPOCH          = 2025-12-22T16:43:05.853792
MEAN_MOTION    = 15.17180475
ECCENTRICITY   = .00011044
INCLINATION    = 97.4410
RA_OF_ASC_NODE = 68.2849
ARG_OF_PERICENTER = 193.8242
MEAN_ANOMALY   = 166.2962

EPHEMERIS_TYPE = 0
CLASSIFICATION_TYPE = U
NORAD_CAT_ID   = 66753
ELEMENT_SET_NO = 999
REV_AT_EPOCH   = 363
BSTAR          = -.54396978E-2
MEAN_MOTION_DOT = -.106457E-2
MEAN_MOTION_DDOT = 0

CCSDS_OMM_VERS = 2.0
CREATION_DATE  = 
ORIGINATOR     = 

OBJECT_NAME    = ICEYE-X61
OBJECT_ID      = 2025-276CS
CENTER_NAME    = EARTH
REF_FRAME      = TEME
TIME_SYSTEM    = UTC
MEAN_ELEMENT_THEORY = SGP/SGP4

EPOCH          = 2025-12-24T06:30:26.607456
MEAN_MOTION    = 15.17858911
ECCENTRICITY   = .00023745
INCLINATION    = 97.4405
RA_OF_ASC_NODE = 69.8492
ARG_OF_PERICENTER = 187.1235
MEAN_ANOMALY   = 172.9966

EPHEMERIS_TYPE = 0
CLASSIFICATION_TYPE = U
NORAD_CAT_ID   = 66754
ELEMENT_SET_NO = 999
REV_AT_EPOCH   = 387
BSTAR          = .3173273E-3
MEAN_MOTION_DOT = .636E-4
MEAN_MOTION_DDOT = 0

CCSDS_OMM_VERS = 2.0
CREATION_DATE  = 
ORIGINATOR     = 

OBJECT_NAME    = ICEYE-X62
OBJECT_ID      = 2025-276CT
CENTER_NAME    = EARTH
REF_FRAME      = TEME
TIME_SYSTEM    = UTC
MEAN_ELEMENT_THEORY = SGP/SGP4

EPOCH          = 2025-12-22T22:57:46.373472
MEAN_MOTION    = 15.17604649
ECCENTRICITY   = .00026826
INCLINATION    = 97.4395
RA_OF_ASC_NODE = 68.5434
ARG_OF_PERICENTER = 290.3052
MEAN_ANOMALY   = 69.7893

EPHEMERIS_TYPE = 0
CLASSIFICATION_TYPE = U
NORAD_CAT_ID   = 66755
ELEMENT_SET_NO = 999
REV_AT_EPOCH   = 367
BSTAR          = .72637995E-4
MEAN_MOTION_DOT = .1393E-4
MEAN_MOTION_DDOT = 0

CCSDS_OMM_VERS = 2.0
CREATION_DATE  = 
ORIGINATOR     = 

OBJECT_NAME    = TRANSPORTER-15CU
OBJECT_ID      = 2025-276CU
CENTER_NAME    = EARTH
REF_FRAME      = TEME
TIME_SYSTEM    = UTC
MEAN_ELEMENT_THEORY = SGP/SGP4

EPOCH          = 2025-12-24T04:53:51.337824
MEAN_MOTION    = 15.17963946
ECCENTRICITY   = .00016485
INCLINATION    = 97.4410
RA_OF_ASC_NODE = 69.7896
ARG_OF_PERICENTER = 153.8094
MEAN_ANOMALY   = 206.3224

EPHEMERIS_TYPE = 0
CLASSIFICATION_TYPE = U
NORAD_CAT_ID   = 66756
ELEMENT_SET_NO = 999
REV_AT_EPOCH   = 386
BSTAR          = .52174089E-3
MEAN_MOTION_DOT = .10538E-3
MEAN_MOTION_DDOT = 0

CCSDS_OMM_VERS = 2.0
CREATION_DATE  = 
ORIGINATOR     = 

OBJECT_NAME    = TRANSPORTER-15CV
OBJECT_ID      = 2025-276CV
CENTER_NAME    = EARTH
REF_FRAME      = TEME
TIME_SYSTEM    = UTC
MEAN_ELEMENT_THEORY = SGP/SGP4

EPOCH          = 2025-12-24T06:26:36.386016
MEAN_MOTION    = 15.18091372
ECCENTRICITY   = .00020695
INCLINATION    = 97.4421
RA_OF_ASC_NODE = 69.8597
ARG_OF_PERICENTER = 155.4992
MEAN_ANOMALY   = 204.6341

EPHEMERIS_TYPE = 0
CLASSIFICATION_TYPE = U
NORAD_CAT_ID   = 66757
ELEMENT_SET_NO = 999
REV_AT_EPOCH   = 387
BSTAR          = .62084031E-3
MEAN_MOTION_DOT = .12602E-3
MEAN_MOTION_DDOT = 0

CCSDS_OMM_VERS = 2.0
CREATION_DATE  = 
ORIGINATOR     = 

OBJECT_NAME    = TRANSPORTER-15CW
OBJECT_ID      = 2025-276CW
CENTER_NAME    = EARTH
REF_FRAME      = TEME
TIME_SYSTEM    = UTC
MEAN_ELEMENT_THEORY = SGP/SGP4

EPOCH          = 2025-12-24T06:26:12.467040
MEAN_MOTION    = 15.18093910
ECCENTRICITY   = .00014693
INCLINATION    = 97.4392
RA_OF_ASC_NODE = 69.8497
ARG_OF_PERICENTER = 137.4548
MEAN_ANOMALY   = 222.6800

EPHEMERIS_TYPE = 0
CLASSIFICATION_TYPE = U
NORAD_CAT_ID   = 66758
ELEMENT_SET_NO = 999
REV_AT_EPOCH   = 387
BSTAR          = .55534732E-3
MEAN_MOTION_DOT = .11264E-3
MEAN_MOTION_DDOT = 0

CCSDS_OMM_VERS = 2.0
CREATION_DATE  = 
ORIGINATOR     = 

OBJECT_NAME    = TRANSPORTER-15CX
OBJECT_ID      = 2025-276CX
CENTER_NAME    = EARTH
REF_FRAME      = TEME
TIME_SYSTEM    = UTC
MEAN_ELEMENT_THEORY = SGP/SGP4

EPOCH          = 2025-12-24T03:13:50.466432
MEAN_MOTION    = 15.18234635
ECCENTRICITY   = .00018047
INCLINATION    = 97.4377
RA_OF_ASC_NODE = 69.7181
ARG_OF_PERICENTER = 137.2523
MEAN_ANOMALY   = 222.8851

EPHEMERIS_TYPE = 0
CLASSIFICATION_TYPE = U
NORAD_CAT_ID   = 66759
ELEMENT_SET_NO = 999
REV_AT_EPOCH   = 385
BSTAR          = .75944991E-3
MEAN_MOTION_DOT = .155E-3
MEAN_MOTION_DDOT = 0

