TRANSPORTER-15CL        
1 66748U 25276CL  25358.20098854  .00023791  00000+0  11661-2 0  9990
2 66748  97.4414  69.7899 0001677 100.4220 259.7203 15.18130934  3860
TRANSPORTER-15CM        
1 66749U 25276CM  25358.20572011  .00011614  00000+0  57575-3 0  9999
2 66749  97.4399  69.7806 0001968 182.3590 177.7635 15.17895008  3860
TRANSPORTER-15CN        
1 66750U 25276CN  25358.26839875  .00011308  00000+0  55817-3 0  9998
2 66750  97.4438  69.8649 0002237 148.4569 211.6800 15.18051603  3870
ICEYE-X58               
1 66751U 25276CP  25358.20612407  .00010004  00000+0  49753-3 0  9997
2 66751  97.4410  69.7883 0002450 199.7456 160.3684 15.17821038  3866
ICEYE-X59               
1 66752U 25276CQ  25358.20934046  .00010627  00000+0  53128-3 0  9996
2 66752  97.4404  69.7838 0001916 229.2772 130.8295 15.17621478  3862
ICEYE-X60               
1 66753U 25276CR  25356.69659553 -.00106457  00000+0 -54397-2 0  9992
2 66753  97.4410  68.2849 0001104 193.8242 166.2962 15.17180475  3639
ICEYE-X61               
1 66754U 25276CS  25358.27114129  .00006360  00000+0  31733-3 0  9994
2 66754  97.4405  69.8492 0002374 187.1235 172.9966 15.17858911  3874
ICEYE-X62               
1 66755U 25276CT  25356.95678673  .00001393  00000+0  72638-4 0  9998
2 66755  97.4395  68.5434 0002682 290.3052  69.7893 15.17604649  3678
TRANSPORTER-15CU        
1 66756U 25276CU  25358.20406641  .00010538  00000+0  52174-3 0  9996
2 66756  97.4410  69.7896 0001648 153.8094 206.3224 15.17963946  3868
TRANSPORTER-15CV        
1 66757U 25276CV  25358.26847669  .00012602  00000+0  62084-3 0  9997
2 66757  97.4421  69.8597 0002069 155.4992 204.6341 15.18091372  3871
TRANSPORTER-15CW        
1 66758U 25276CW  25358.26819985  .00011264  00000+0  55535-3 0  9994
2 66758  97.4392  69.8497 0001469 137.4548 222.6800 15.18093910  3878
TRANSPORTER-15CX        
1 66759U 25276CX  25358.13461188  .00015500  00000+0  75945-3 0  9993
2 66759  97.4377  69.7181 0001804 137.2523 222.8851 15.18234635  3852
